{
  "norad_id": 59477,
  "name": "STARLINK-31531",
  "history": [
    {
      "epoch": "2026-03-28T17:59:37.715712",
      "apogee_km": 483.79494769077155,
      "perigee_km": 482.30579558363297,
      "latitude_deg": -31.451968557211543,
      "longitude_deg": -160.3247603198979,
      "semi_major_axis_km": 6861.187371637202,
      "eccentricity": 0.00010852,
      "inclination_deg": 43.0006,
      "raan_deg": 231.7214,
      "arg_perigee_deg": 278.1812,
      "mean_anomaly_deg": 81.8916,
      "mean_motion_rev_day": 15.27579574
    },
    {
      "epoch": "2026-03-29T01:50:24.879840",
      "apogee_km": 483.81759845466695,
      "perigee_km": 482.310878662679,
      "latitude_deg": 9.878610120958339,
      "longitude_deg": -128.9390224001836,
      "semi_major_axis_km": 6861.201238558673,
      "eccentricity": 0.0001098,
      "inclination_deg": 42.999,
      "raan_deg": 229.8731,
      "arg_perigee_deg": 276.9121,
      "mean_anomaly_deg": 83.1605,
      "mean_motion_rev_day": 15.27574943
    }
  ]
}